324P/LaSagra,e,21.3991,270.5727,57.5160,3.096249,0.1809049,0.15302787,219.2590,08/28.0/2024,2000,g 13.0,4.0
# From MPEC 2024-LE0
325P/Yang-Gao,e,16.8444,256.8643,344.9206,3.545889,0.1476102,0.58911645,130.6742,08/28.0/2024,2000,g 14.0,4.0
# From MPEC 2024-LE0
326P/Hill,e,2.4721,99.7656,278.5391,4.073115,0.1198986,0.32035413,29.0237,08/28.0/2024,2000,g 13.5,4.0
# From MPEC 2024-M41
327P/VanNess,e,36.2420,173.9939,185.0422,3.562589,0.1465735,0.56279759,106.3837,08/28.0/2024,2000,g 16.0,4.0
# From MPEC 2024-Q42
328P/LONEOS-Tucker,e,17.6734,341.6087,30.6623,4.188989,0.1149583,0.55277960,3.5685,08/28.0/2024,2000,g 14.5,4.0
# From MPC101101
329P/LINEAR-Catalina,e,21.7172,87.6869,343.5737,5.184195,0.0834992,0.67885074,266.1921,08/28.0/2024,2000,g 13.5,4.0
# From MPEC 2023-J29
330P/Catalina,e,15.7334,293.0806,188.8202,6.617007,0.0579044,0.55013040,169.1587,08/28.0/2024,2000,g 12.0,4.0
# From MPEC 2024-Q20
331P/Gibbs,e,9.7401,216.7492,185.2099,3.003845,0.1893162,0.04151721,268.7972,08/28.0/2024,2000,g 12.0,4.0
# From MPEC 2016-K18
332P/Ikeya-Murakami,e,9.3834,3.7568,152.2890,3.086615,0.1817525,0.48956469,200.9732,08/28.0/2024,2000,g 18.0,4.0
# From MPEC 2016-K18
332P-A/Ikeya-Murakami,e,9.3839,152.3103,3.7360,3.086607,0.1817532,0.48957020,200.9724,08/28.0/2024,2000,g  9.0,4.0
# From MPEC 2016-EI8
332P-B/Ikeya-Murakami,e,9.3805,3.8028,152.3711,3.082329,0.1821317,0.48970701,359.9699,03/17.0/2016,2000,g 19.0,4.0
# From MPEC 2016-K18
332P-C/Ikeya-Murakami,e,9.3829,152.3016,3.7364,3.086573,0.1817562,0.48957576,200.9899,08/28.0/2024,2000,g 16.5,4.0
# From MPEC 2016-ED0
332P-D/Ikeya-Murakami,e,9.3761,3.7923,152.4393,3.081138,0.1822373,0.48977814,359.9486,03/17.0/2016,2000,g 19.0,4.0
# From MPEC 2016-ED0
332P-E/Ikeya-Murakami,e,9.3774,3.8228,152.2825,3.079877,0.1823493,0.48922008,359.9889,03/17.0/2016,2000,g 21.0,4.0
# From MPEC 2016-ED0
332P-F/Ikeya-Murakami,e,9.5293,3.4757,152.8203,3.163214,0.1751908,0.49918860,359.8501,03/17.0/2016,2000,g 21.0,4.0
# From MPEC 2016-ED0
332P-G/Ikeya-Murakami,e,9.2523,3.6955,154.4000,3.050519,0.1849880,0.49200362,359.9006,03/19.0/2016,2000,g 19.0,4.0
# From MPC100285
332P-H/Ikeya-Murakami,e,9.3835,152.3022,3.7361,3.086754,0.1817402,0.48961148,200.9069,08/28.0/2024,2000,g 19.0,4.0
# From MPEC 2016-ED0
332P-I/Ikeya-Murakami,e,9.3791,3.8048,152.3297,3.081767,0.1821815,0.48955490,359.9360,03/17.0/2016,2000,g 20.5,2.0
# From MPEC 2016-EI8
332P-J/Ikeya-Murakami,e,9.4296,3.6729,152.7712,3.115165,0.1792596,0.49429435,359.8613,03/17.0/2016,2000,g 20.5,2.0
# From MPEC 2024-NE4
333P/LINEAR,e,132.0216,115.7057,26.0184,4.220336,0.1136798,0.73629077,349.3937,08/28.0/2024,2000,g 15.0,4.0
# From MPEC 2023-J29
334P/NEAT,e,20.3715,90.4457,90.0381,6.828092,0.0552402,0.35133911,145.9860,08/28.0/2024,2000,g 10.5,4.0
# From MPEC 2023-M14
335P/Gibbs,e,7.2950,330.8080,162.3036,3.577584,0.1456530,0.54661109,108.7752,08/28.0/2024,2000,g 16.8,4.0
# From MPC105244
336P/McNaught,e,17.8314,298.2064,308.6245,5.037823,0.0871645,0.44432015,241.6037,08/28.0/2024,2000,g 13.5,4.0
# From MPEC 2024-A43
337P/WISE,e,15.7558,104.3089,163.1102,3.298335,0.1645364,0.49941222,129.2392,08/28.0/2024,2000,g 17.0,4.0
# From MPEC 2024-Q20
338P/McNaught,e,25.3854,9.7932,4.6010,3.893449,0.1282928,0.41236900,3.1679,08/28.0/2024,2000,g 12.0,4.0
# From MPC101101
339P/Gibbs,e,5.7333,27.4721,172.6864,3.699560,0.1385093,0.63565098,50.2894,08/28.0/2024,2000,g 17.0,4.0
# From MPC133426
340P/Boattini,e,2.0787,291.6622,36.0625,4.248399,0.1125554,0.28024800,318.7795,08/28.0/2024,2000,g 14.3,4.0
# From MPEC 2023-J29
341P/Gibbs,e,3.7964,29.9595,312.3437,4.287021,0.1110377,0.41533660,333.6110,08/28.0/2024,2000,g 12.5,4.0
# From MPC101101
342P/SOHO,e,11.6949,73.3224,27.6338,3.041072,0.1858506,0.98294489,0.0000,02/07.5592/2027,2000,g  9.0,4.0
# From MPEC 2024-PC5
343P/NEAT-LONEOS,e,5.5972,257.0573,137.5944,5.457517,0.0773057,0.58514851,213.6122,08/28.0/2024,2000,g 14.0,4.0
# From MPEC 2023-J29
344P/Read,e,3.4991,273.1006,140.5773,4.856861,0.0920811,0.42379275,262.3431,08/28.0/2024,2000,g 13.0,4.0
# From MPEC 2024-Q20
345P/LINEAR,e,2.7280,154.5105,196.6733,4.031387,0.1217650,0.22126347,359.6852,08/28.0/2024,2000,g 12.0,4.0
# From MPEC 2022-K19
346P/Catalina,e,22.2183,102.4565,336.0319,4.469896,0.1042937,0.50388936,286.6630,08/28.0/2024,2000,g 14.0,4.0
# From MPEC 2024-M41
347P/PANSTARRS,e,11.7652,260.9897,98.2550,3.604046,0.1440518,0.38682413,58.3996,08/28.0/2024,2000,g 15.0,4.0
# From MPEC 2022-ED3
348P/PANSTARRS,e,17.7390,312.9237,135.7318,3.151865,0.1761379,0.30741963,163.2691,08/28.0/2024,2000,g 14.0,4.0
# From MPEC 2024-LE0
349P/Lemmon,e,5.4885,331.7467,255.7843,3.578574,0.1455925,0.29858121,13.5288,08/28.0/2024,2000,g 14.0,4.0
# From MPC111775
350P/McNaught,e,7.3638,65.2930,140.0096,4.081168,0.1195439,0.09451399,292.3113,08/28.0/2024,2000,g 14.0,4.0
# From MPC105244
351P/Wiegert-PANSTARRS,e,12.7748,352.6767,283.3094,4.440757,0.1053219,0.29476035,337.8432,08/28.0/2024,2000,g 12.5,4.0
# From MPEC 2023-J29
352P/Skiff,e,21.0107,28.0205,309.4022,6.653256,0.0574318,0.61658218,150.7762,08/28.0/2024,2000,g 13.2,4.0
# From MPEC 2020-AA5
353P/McNaught,e,28.4169,121.5216,230.4921,4.170702,0.1157152,0.46989812,282.1949,08/28.0/2024,2000,g 14.5,4.0
# From MPEC 2024-EF7
354P/LINEAR,e,5.2507,320.0692,132.8420,2.289988,0.2844162,0.12449186,90.7224,08/28.0/2024,2000,g 15.5,4.0
# From MPEC 2023-CD7
355P/LINEAR-NEAT,e,11.0465,51.4328,336.3064,3.469595,0.1525056,0.50813307,22.6680,08/28.0/2024,2000,g 15.5,2.0
# From MPEC 2022-F14
356P/WISE,e,9.6405,160.8042,226.1624,4.153890,0.1164184,0.35603336,283.9660,08/28.0/2024,2000,g 14.0,4.0
# From MPC114609
357P/Hill,e,6.3140,44.5782,1.4662,4.455782,0.1047896,0.43612756,238.7288,08/28.0/2024,2000,g 15.5,4.0
# From MPEC 2024-EF7
358P/PANSTARRS,e,11.0664,85.6660,299.4862,3.147848,0.1764751,0.23960694,51.5228,08/28.0/2024,2000,g 18.0,4.0
# From MPC110086
359P/LONEOS,e,10.2629,149.7645,200.2971,4.641565,0.0985615,0.32343359,252.4500,08/28.0/2024,2000,g 13.5,4.0
# From MPC108599
360P/WISE,e,24.1089,2.2118,354.2451,3.696838,0.1386623,0.49912326,354.9036,08/28.0/2024,2000,g 19.5,6.0
# From MPEC 2023-CD7
361P/Spacewatch,e,13.9010,203.2493,219.0786,4.933386,0.0899469,0.43958760,201.8782,08/28.0/2024,2000,g 12.0,4.0
# From MPC114609
363P/Lemmon,e,5.3897,146.6351,340.8720,3.575341,0.1457901,0.51868890,348.7459,08/28.0/2024,2000,g 17.5,4.0
# From MPEC 2024-M41
364P/PANSTARRS,e,12.0797,46.1233,212.3043,2.891537,0.2004523,0.72117623,94.5677,08/28.0/2024,2000,g 17.0,2.0
# From MPC111775
365P/PANSTARRS,e,9.8499,86.6566,67.4235,3.156440,0.1757550,0.58146748,56.8729,08/28.0/2024,2000,g 17.0,4.0
# From MPC114610
366P/Spacewatch,e,8.8569,70.7230,153.0114,3.499114,0.1505799,0.34842245,336.5184,08/28.0/2024,2000,g 15.0,4.0
# From MPC112395
367P/Catalina,e,8.4596,58.6613,172.7095,3.510768,0.1498307,0.27995077,339.5298,08/28.0/2024,2000,g 17.5,2.0
# From MPC114610
368P/NEAT,e,15.4821,257.8598,118.9711,5.533299,0.0757230,0.62616183,164.5522,08/28.0/2024,2000,g 14.0,4.0
# From MPC114610
369P/Hill,e,10.3220,47.2955,13.2047,4.379469,0.1075404,0.55593585,230.1287,08/28.0/2024,2000,g 15.0,4.0
# From MPEC 2021-F20
370P/NEAT,e,19.4231,55.0820,356.7566,6.438102,0.0603347,0.61545976,136.8657,08/28.0/2024,2000,g 13.0,4.0
# From MPC114610
371P/LINEAR-Skiff,e,17.3852,67.2830,308.5683,4.180483,0.1153093,0.47683219,248.0721,08/28.0/2024,2000,g 16.0,4.0
# From MPEC 2020-K19
372P/McNaught,e,9.5065,27.5519,326.0150,4.511370,0.1028588,0.15161522,219.6043,08/28.0/2024,2000,g 13.5,4.0
# From MPEC 2021-F20
373P/Rinner,e,13.7702,231.9424,221.0777,3.798249,0.1331463,0.39368928,261.7508,08/28.0/2024,2000,g 14.5,4.0
# From MPC114610
374P/Larson,e,10.7638,7.8941,51.5294,4.971064,0.0889263,0.46376510,182.5678,08/28.0/2024,2000,g 14.0,4.0
# From MPEC 2021-F20
375P/Hill,e,17.3682,359.8763,119.4003,5.546423,0.0754544,0.65992812,156.6021,08/28.0/2024,2000,g 16.0,4.0
# From MPEC 2022-K19
376P/LONEOS,e,1.1662,312.8561,285.4069,5.756864,0.0713551,0.51384080,129.1050,08/28.0/2024,2000,g 12.5,4.0
# From MPEC 2022-N37
377P/Scotti,e,9.0256,226.0135,354.8740,6.696743,0.0568733,0.25113890,85.9108,08/28.0/2024,2000,g  9.5,4.0
# From MPEC 2024-D33
378P/McNaught,e,19.1489,93.8080,193.3768,6.291054,0.0624624,0.46469450,88.5748,08/28.0/2024,2000,g 12.0,4.0
# From MPC115889
379P/Spacewatch,e,12.4390,30.5001,184.4458,3.487530,0.1513307,0.35005453,277.7672,08/28.0/2024,2000,g 15.0,4.0
# From MPEC 2023-C45
380P/PANSTARRS,e,8.0204,127.9803,87.9073,4.430258,0.1056965,0.33635257,207.6136,08/28.0/2024,2000,g 12.5,4.0
# From MPEC 2021-J28
381P/LINEAR-Spacewatch,e,28.3549,173.2999,173.8517,7.143991,0.0516170,0.68099585,92.7983,08/28.0/2024,2000,g 17.5,2.0
# From MPEC 2024-MB8
382P/Larson,e,8.2638,171.5575,162.2116,5.928962,0.0682710,0.26965354,69.5147,08/28.0/2024,2000,g  8.0,4.0
# From MPEC 2022-OB6
383P/Christensen,e,12.3199,207.8530,133.7487,3.548271,0.1474616,0.59869528,260.6879,08/28.0/2024,2000,g 18.0,4.0
# From MPEC 2024-Q20
384P/Kowalski,e,7.2833,354.1996,37.7130,2.898294,0.1997517,0.61629703,355.5768,08/28.0/2024,2000,g 19.5,4.0
# From MPEC 2021-F20
385P/Hill,e,16.8261,357.0584,44.4208,4.288828,0.1109676,0.40207322,200.5145,08/28.0/2024,2000,g 13.0,4.0
# From MPEC 2021-L04
386P/PANSTARRS,e,15.2424,134.9163,353.0835,4.050061,0.1209238,0.41719370,177.6524,08/28.0/2024,2000,g 14.5,4.0
# From MPEC 2021-J28
387P/Boattini,e,8.9369,259.2410,162.8352,4.797179,0.0938048,0.73709869,170.3115,08/28.0/2024,2000,g 15.0,4.0
# From MPEC 2021-S45
388P/Gibbs,e,23.8872,37.0266,42.3321,5.240594,0.0821549,0.61933126,152.8094,08/28.0/2024,2000,g 13.0,4.0
# From MPEC 2022-OB6
389P/Siding Spring,e,160.0845,218.8752,249.3691,5.631985,0.0737415,0.70526831,125.5118,08/28.0/2024,2000,g 16.0,4.0
# From MPEC 2024-EF7
390P/Gibbs,e,18.5338,152.2295,232.5062,5.815790,0.0702734,0.70707798,113.7862,08/28.0/2024,2000,g 12.0,4.0
# From MPEC 2021-F20
391P/Kowalski,e,21.2593,124.7840,187.1295,4.689267,0.0970614,0.11864359,228.6253,08/28.0/2024,2000,g  8.0,4.0
# From MPEC 2021-J28
